{"type": "FeatureCollection", "features": [ {"type": "Feature", "properties": {"norad_id": 66443, "name": "STARLINK-35219", "group": "last-30-days", "lat": -42.80431606581559, "lon": 11.978846943627252, "alt_km": 418.1763658715008, "timestamp": "2025-12-02T07:10:07.866086+00:00", "meta": {"OBJECT_NAME": "STARLINK-35219", "OBJECT_ID": "2025-259X", "EPOCH": "2025-12-01T20:00:01.999008", "MEAN_MOTION": 15.51377831, "ECCENTRICITY": 0.000157, "INCLINATION": 42.9995, "RA_OF_ASC_NODE": 111.0329, "ARG_OF_PERICENTER": 283.8875, "MEAN_ANOMALY": 260.368, "EPHEMERIS_TYPE": 0, "CLASSIFICATION_TYPE": "U", "NORAD_CAT_ID": 66443, "ELEMENT_SET_NO": 999, "REV_AT_EPOCH": 441, "BSTAR": -0.020425, "MEAN_MOTION_DOT": -0.01113846, "MEAN_MOTION_DDOT": 0}, "tle": {"line1": "1 66443U 25259X   25335.83335647 -.01113846  00000+0 -20425-1 0  9992", "line2": "2 66443  42.9995 111.0329 0001570 283.8875 260.3680 15.51377831  4419"}}, "geometry": {"type": "Point", "coordinates": [11.978846943627252, -42.80431606581559]}}, {"type": "Feature", "properties": {"norad_id": 66444, "name": "STARLINK-35360", "group": "last-30-days", "lat": -42.97011263279626, "lon": 19.720285188657453, "alt_km": 418.6235558059452, "timestamp": "2025-12-02T07:10:07.866106+00:00", "meta": {"OBJECT_NAME": "STARLINK-35360", "OBJECT_ID": "2025-259Y", "EPOCH": "2025-12-01T20:00:01.999008", "MEAN_MOTION": 15.51422321, "ECCENTRICITY": 0.0001307, "INCLINATION": 42.9994, "RA_OF_ASC_NODE": 111.0176, "ARG_OF_PERICENTER": 276.8636, "MEAN_ANOMALY": 273.1499, "EPHEMERIS_TYPE": 0, "CLASSIFICATION_TYPE": "U", "NORAD_CAT_ID": 66444, "ELEMENT_SET_NO": 999, "REV_AT_EPOCH": 452, "BSTAR": -0.023555, "MEAN_MOTION_DOT": -0.01288747, "MEAN_MOTION_DDOT": 0}, "tle": {"line1": "1 66444U 25259Y   25335.83335647 -.01288747  00000+0 -23555-1 0  9993", "line2": "2 66444  42.9994 111.0176 0001307 276.8636 273.1499 15.51422321  4521"}}, "geometry": {"type": "Point", "coordinates": [19.720285188657453, -42.97011263279626]}}, {"type": "Feature", "properties": {"norad_id": 66445, "name": "STARLINK-34698", "group": "last-30-days", "lat": -42.91637583265651, "lon": 14.507150533849039, "alt_km": 418.6606908449821, "timestamp": "2025-12-02T07:10:07.866127+00:00", "meta": {"OBJECT_NAME": "STARLINK-34698", "OBJECT_ID": "2025-259Z", "EPOCH": "2025-12-01T20:00:01.999008", "MEAN_MOTION": 15.51429222, "ECCENTRICITY": 0.0001227, "INCLINATION": 42.9996, "RA_OF_ASC_NODE": 111.0274, "ARG_OF_PERICENTER": 273.6967, "MEAN_ANOMALY": 272.4772, "EPHEMERIS_TYPE": 0, "CLASSIFICATION_TYPE": "U", "NORAD_CAT_ID": 66445, "ELEMENT_SET_NO": 999, "REV_AT_EPOCH": 441, "BSTAR": -0.023578, "MEAN_MOTION_DOT": -0.01290128, "MEAN_MOTION_DDOT": 0}, "tle": {"line1": "1 66445U 25259Z   25335.83335647 -.01290128  00000+0 -23578-1 0  9995", "line2": "2 66445  42.9996 111.0274 0001227 273.6967 272.4772 15.51429222  4417"}}, "geometry": {"type": "Point", "coordinates": [14.507150533849039, -42.91637583265651]}}, {"type": "Feature", "properties": {"norad_id": 66446, "name": "STARLINK-34986", "group": "last-30-days", "lat": -42.97306952974396, "lon": 17.11536478875815, "alt_km": 418.6330066193168, "timestamp": "2025-12-02T07:10:07.866147+00:00", "meta": {"OBJECT_NAME": "STARLINK-34986", "OBJECT_ID": "2025-259AA", "EPOCH": "2025-12-01T20:00:01.999008", "MEAN_MOTION": 15.5142572, "ECCENTRICITY": 0.0001245, "INCLINATION": 42.9996, "RA_OF_ASC_NODE": 111.022, "ARG_OF_PERICENTER": 272.484, "MEAN_ANOMALY": 275.6056, "EPHEMERIS_TYPE": 0, "CLASSIFICATION_TYPE": "U", "NORAD_CAT_ID": 66446, "ELEMENT_SET_NO": 999, "REV_AT_EPOCH": 452, "BSTAR": -0.023443, "MEAN_MOTION_DOT": -0.01283317, "MEAN_MOTION_DDOT": 0}, "tle": {"line1": "1 66446U 25259AA  25335.83335647 -.01283317  00000+0 -23443-1 0  9999", "line2": "2 66446  42.9996 111.0220 0001245 272.4840 275.6056 15.51425720  4527"}}, "geometry": {"type": "Point", "coordinates": [17.11536478875815, -42.97306952974396]}}, {"type": "Feature", "properties": {"norad_id": 66447, "name": "STARLINK-34851", "group": "last-30-days", "lat": -42.90525284365256, "lon": 22.409121788493135, "alt_km": 417.9916202638624, "timestamp": "2025-12-02T07:10:07.866166+00:00", "meta": {"OBJECT_NAME": "STARLINK-34851", "OBJECT_ID": "2025-259AB", "EPOCH": "2025-12-01T20:00:01.999008", "MEAN_MOTION": 15.51397152, "ECCENTRICITY": 0.0001816, "INCLINATION": 42.9996, "RA_OF_ASC_NODE": 111.0134, "ARG_OF_PERICENTER": 279.7523, "MEAN_ANOMALY": 272.169, "EPHEMERIS_TYPE": 0, "CLASSIFICATION_TYPE": "U", "NORAD_CAT_ID": 66447, "ELEMENT_SET_NO": 999, "REV_AT_EPOCH": 441, "BSTAR": -0.021135, "MEAN_MOTION_DOT": -0.01149554, "MEAN_MOTION_DDOT": 0}, "tle": {"line1": "1 66447U 25259AB  25335.83335647 -.01149554  00000+0 -21135-1 0  9990", "line2": "2 66447  42.9996 111.0134 0001816 279.7523 272.1690 15.51397152  4415"}}, "geometry": {"type": "Point", "coordinates": [22.409121788493135, -42.90525284365256]}}, {"type": "Feature", "properties": {"norad_id": 66448, "name": "STARLINK-35355", "group": "last-30-days", "lat": -42.78669755558359, "lon": 24.924615501450294, "alt_km": 418.6080446557962, "timestamp": "2025-12-02T07:10:07.866184+00:00", "meta": {"OBJECT_NAME": "STARLINK-35355", "OBJECT_ID": "2025-259AC", "EPOCH": "2025-12-01T20:00:01.999008", "MEAN_MOTION": 15.51422652, "ECCENTRICITY": 0.0001343, "INCLINATION": 42.9994, "RA_OF_ASC_NODE": 111.0082, "ARG_OF_PERICENTER": 277.738, "MEAN_ANOMALY": 276.1122, "EPHEMERIS_TYPE": 0, "CLASSIFICATION_TYPE": "U", "NORAD_CAT_ID": 66448, "ELEMENT_SET_NO": 999, "REV_AT_EPOCH": 452, "BSTAR": -0.023719, "MEAN_MOTION_DOT": -0.01296858, "MEAN_MOTION_DDOT": 0}, "tle": {"line1": "1 66448U 25259AC  25335.83335647 -.01296858  00000+0 -23719-1 0  9991", "line2": "2 66448  42.9994 111.0082 0001343 277.7380 276.1122 15.51422652  4520"}}, "geometry": {"type": "Point", "coordinates": [24.924615501450294, -42.78669755558359]}}, {"type": "Feature", "properties": {"norad_id": 66449, "name": "STARLINK-34720", "group": "last-30-days", "lat": -42.605981679177624, "lon": 27.51758948412785, "alt_km": 418.68657195617834, "timestamp": "2025-12-02T07:10:07.866202+00:00", "meta": {"OBJECT_NAME": "STARLINK-34720", "OBJECT_ID": "2025-259AD", "EPOCH": "2025-12-01T20:00:01.999008", "MEAN_MOTION": 15.51423851, "ECCENTRICITY": 0.0001186, "INCLINATION": 42.9993, "RA_OF_ASC_NODE": 111.0029, "ARG_OF_PERICENTER": 274.4324, "MEAN_ANOMALY": 281.331, "EPHEMERIS_TYPE": 0, "CLASSIFICATION_TYPE": "U", "NORAD_CAT_ID": 66449, "ELEMENT_SET_NO": 999, "REV_AT_EPOCH": 441, "BSTAR": -0.023628, "MEAN_MOTION_DOT": -0.01292355, "MEAN_MOTION_DDOT": 0}, "tle": {"line1": "1 66449U 25259AD  25335.83335647 -.01292355  00000+0 -23628-1 0  9999", "line2": "2 66449  42.9993 111.0029 0001186 274.4324 281.3310 15.51423851  4415"}}, "geometry": {"type": "Point", "coordinates": [27.51758948412785, -42.605981679177624]}}, {"type": "Feature", "properties": {"norad_id": 66450, "name": "STARLINK-35334", "group": "last-30-days", "lat": -42.36809828456714, "lon": 30.08359788127195, "alt_km": 418.6659060440252, "timestamp": "2025-12-02T07:10:07.866225+00:00", "meta": {"OBJECT_NAME": "STARLINK-35334", "OBJECT_ID": "2025-259AE", "EPOCH": "2025-12-01T20:00:01.999008", "MEAN_MOTION": 15.51416397, "ECCENTRICITY": 0.0001201, "INCLINATION": 42.9994, "RA_OF_ASC_NODE": 110.9973, "ARG_OF_PERICENTER": 275.6896, "MEAN_ANOMALY": 281.9934, "EPHEMERIS_TYPE": 0, "CLASSIFICATION_TYPE": "U", "NORAD_CAT_ID": 66450, "ELEMENT_SET_NO": 999, "REV_AT_EPOCH": 452, "BSTAR": -0.023481, "MEAN_MOTION_DOT": -0.01284751, "MEAN_MOTION_DDOT": 0}, "tle": {"line1": "1 66450U 25259AE  25335.83335647 -.01284751  00000+0 -23481-1 0  9999", "line2": "2 66450  42.9994 110.9973 0001201 275.6896 281.9934 15.51416397  4526"}}, "geometry": {"type": "Point", "coordinates": [30.08359788127195, -42.36809828456714]}}, {"type": "Feature", "properties": {"norad_id": 66454, "name": "VIASAT-3 F2", "group": "last-30-days", "lat": 2.490181073756951, "lon": -40.29824601385437, "alt_km": 22996.41971038843, "timestamp": "2025-12-02T07:10:07.866249+00:00", "meta": {"OBJECT_NAME": "VIASAT-3 F2", "OBJECT_ID": "2025-261A", "EPOCH": "2025-11-26T17:55:45.153696", "MEAN_MOTION": 2.28187844, "ECCENTRICITY": 0.23413249, "INCLINATION": 5.5832, "RA_OF_ASC_NODE": 293.8608, "ARG_OF_PERICENTER": 182.7714, "MEAN_ANOMALY": 334.4159, "EPHEMERIS_TYPE": 0, "CLASSIFICATION_TYPE": "U", "NORAD_CAT_ID": 66454, "ELEMENT_SET_NO": 999, "REV_AT_EPOCH": 28, "BSTAR": 0, "MEAN_MOTION_DOT": -5.1e-07, "MEAN_MOTION_DDOT": 0}, "tle": {"line1": "1 66454U 25261A   25330.74705039 -.00000051  00000+0  00000+0 0  9994", "line2": "2 66454   5.5832 293.8608 2341324 182.7714 334.4159  2.28187844   288"}}, "geometry": {"type": "Point", "coordinates": [-40.29824601385437, 2.490181073756951]}}, {"type": "Feature", "properties": {"norad_id": 66455, "name": "ATLAS 5 CENTAUR R/B", "group": "last-30-days", "lat": 2.153558913664792, "lon": -46.988384721743884, "alt_km": 23301.770769362214, "timestamp": "2025-12-02T07:10:07.866269+00:00", "meta": {"OBJECT_NAME": "ATLAS 5 CENTAUR R/B", "OBJECT_ID": "2025-261B", "EPOCH": "2025-12-01T09:05:22.267680", "MEAN_MOTION": 2.28259456, "ECCENTRICITY": 0.2329758, "INCLINATION": 6.1608, "RA_OF_ASC_NODE": 292.7524, "ARG_OF_PERICENTER": 184.1992, "MEAN_ANOMALY": 169.0341, "EPHEMERIS_TYPE": 0, "CLASSIFICATION_TYPE": "U", "NORAD_CAT_ID": 66455, "ELEMENT_SET_NO": 999, "REV_AT_EPOCH": 38, "BSTAR": 0, "MEAN_MOTION_DOT": -4.6e-07, "MEAN_MOTION_DDOT": 0}, "tle": {"line1": "1 66455U 25261B   25335.37872995 -.00000046  00000+0  00000+0 0  9999", "line2": "2 66455   6.1608 292.7524 2329758 184.1992 169.0341  2.28259456   388"}}, "geometry": {"type": "Point", "coordinates": [-46.988384721743884, 2.153558913664792]}}]}